ATLAS CENTAUR R/B       
1 06155U 72065B   26094.23288894  .00001930  00000+0  26509-3 0  9999
2 06155  35.0006 156.0503 0033951 226.0236 133.7663 14.77765636845047
SL-8 R/B                
1 08459U 75112B   26094.10075854  .00000380  00000+0  13364-3 0  9993
2 08459  74.0622 332.1708 0014695  55.1398 305.1135 14.38219251635524
SL-3 R/B                
1 10114U 77057B   26094.22301310  .00021303  00000+0  43361-3 0  9994
2 10114  97.5803 267.2870 0007216 181.5275 178.5953 15.46271076672279
SEASAT 1                
1 10967U 78064A   26094.15882226  .00000556  00000+0  19373-3 0  9994
2 10967 108.0068 178.9384 0002724 272.8719  87.2115 14.46183766510195
SL-14 R/B               
1 11267U 79011B   26094.20089177  .00001070  00000+0  10307-3 0  9991
2 11267  82.5219  72.3555 0015355 337.9018  22.1537 14.91945347532583
SL-8 R/B                
1 11574U 79089B   26094.26963618  .00000518  00000+0  16454-3 0  9999
2 11574  74.0702  43.6889 0016534 212.8113 147.2018 14.42369247439792
SL-14 R/B               
1 11672U 80005B   26094.23072870  .00000885  00000+0  86874-4 0  9997
2 11672  82.5107 283.0013 0017230  79.4284 280.8875 14.90962304480295
SL-8 R/B                
1 12139U 81003B   26093.95882298  .00033850  00000+0  84192-3 0  9994
2 12139  82.9334 266.6348 0259872  90.8612 272.2403 15.12164288318494
SL-3 R/B                
1 12465U 81046B   26094.21677305  .00019486  00000+0  44338-3 0  9991
2 12465  81.2289 259.0699 0018068 291.3975  68.5340 15.42667571442368
SL-3 R/B                
1 12904U 81103B   26094.28865500  .00008507  00000+0  37394-3 0  9992
2 12904  81.1611 183.4025 0013076 195.8467 164.2358 15.21699844977120
SL-3 R/B                
1 13068U 82013B   26094.22088038  .00006564  00000+0  28211-3 0  9991
2 13068  81.1722 130.8412 0023503  94.2092 266.1826 15.22258087408237
SL-3 R/B                
1 13154U 82039B   26094.29895371  .00004973  00000+0  29996-3 0  9991
2 13154  81.1558 186.4311 0028181 239.1157 120.7296 15.10238166385507
